FLOCK 4H-12             
1 66715U 25276BB  26117.17756177  .00007357  00000+0  34612-3 0  9995
2 66715  97.4205 191.6876 0003544 125.8229 234.3336 15.19848296 22996
FLOCK 4H-13             
1 66716U 25276BC  26117.09207016  .00007645  00000+0  35679-3 0  9994
2 66716  97.4240 191.7206 0002866 110.2450 249.9093 15.20115457 22679
FLOCK 4H-14             
1 66717U 25276BD  26117.20291168  .00008261  00000+0  38188-3 0  9992
2 66717  97.4223 191.8496 0002529 107.1220 253.0293 15.20420234 21948
FLOCK 4H-15             
1 66718U 25276BE  26117.20230698  .00007833  00000+0  37750-3 0  9992
2 66718  97.4237 191.5673 0004601 173.4514 186.6782 15.18984470 22672
FLOCK 4H-16             
1 66719U 25276BF  26117.18741246  .00007887  00000+0  37793-3 0  9992
2 66719  97.4253 191.6184 0004919 163.0941 197.0459 15.19182277 22673
FLOCK 4H-18             
1 66721U 25276BH  26117.19135447  .00007713  00000+0  36990-3 0  9992
2 66721  97.4195 191.5001 0003839 181.1659 178.9567 15.19164406 22677
FLOCK 4H-19             
1 66722U 25276BJ  26117.18993583  .00007308  00000+0  33770-3 0  9998
2 66722  97.4196 191.8111 0003278 105.9734 254.1862 15.20468815 21980
FLOCK 4H-20             
1 66723U 25276BK  26117.19876554  .00008841  00000+0  40684-3 0  9993
2 66723  97.4233 191.8727 0004183 113.4263 246.7412 15.20550762 21940
FLOCK 4H-21             
1 66724U 25276BL  26117.20954222  .00006819  00000+0  31770-3 0  9994
2 66724  97.4199 191.7892 0004016 113.9126 246.2530 15.20207791 21949
FLOCK 4H-22             
1 66725U 25276BM  26117.02609681  .00007596  00000+0  36057-3 0  9997
2 66725  97.4189 191.4003 0002762 173.1620 186.9653 15.19529568 22655
FLOCK 4H-23             
1 66726U 25276BN  26117.18963360  .00007670  00000+0  36805-3 0  9996
2 66726  97.4258 191.6235 0005235 156.7102 203.4371 15.19139483 22679
FLOCK 4H-24             
1 66727U 25276BP  26117.11379682  .00007579  00000+0  36281-3 0  9994
2 66727  97.4252 191.5699 0004348 168.8542 191.2790 15.19233414 22660
FLOCK 4H-25             
1 66728U 25276BQ  26117.02579585  .00007202  00000+0  33654-3 0  9993
2 66728  97.4210 191.5990 0002263 101.4505 258.6984 15.20092218 21945
FLOCK 4H-26             
1 66729U 25276BR  26117.19973098  .00007570  00000+0  36476-3 0  9992
2 66729  97.4208 191.5144 0005250 169.4467 190.6878 15.18998890 22670
FLOCK 4H-27             
1 66730U 25276BS  26117.17693920  .00007129  00000+0  33574-3 0  9991
2 66730  97.4184 191.6528 0002282 113.4112 246.7363 15.19823687 22685
FLOCK 4H-28             
1 66731U 25276BT  26117.19821550  .00007739  00000+0  37230-3 0  9996
2 66731  97.4194 191.4928 0004840 170.1588 189.9742 15.19052861 22674
