[{"OBJECT_NAME":"FLOCK 4H-12","OBJECT_ID":"2025-276BB","EPOCH":"2026-04-27T04:15:41.336928","MEAN_MOTION":15.19848296,"ECCENTRICITY":0.00035444,"INCLINATION":97.4205,"RA_OF_ASC_NODE":191.6876,"ARG_OF_PERICENTER":125.8229,"MEAN_ANOMALY":234.3336,"EPHEMERIS_TYPE":0,"CLASSIFICATION_TYPE":"U","NORAD_CAT_ID":66715,"ELEMENT_SET_NO":999,"REV_AT_EPOCH":2299,"BSTAR":0.00034611984,"MEAN_MOTION_DOT":7.357e-5,"MEAN_MOTION_DDOT":0},{"OBJECT_NAME":"FLOCK 4H-13","OBJECT_ID":"2025-276BC","EPOCH":"2026-04-27T02:12:34.861824","MEAN_MOTION":15.20115457,"ECCENTRICITY":0.00028669,"INCLINATION":97.424,"RA_OF_ASC_NODE":191.7206,"ARG_OF_PERICENTER":110.245,"MEAN_ANOMALY":249.9093,"EPHEMERIS_TYPE":0,"CLASSIFICATION_TYPE":"U","NORAD_CAT_ID":66716,"ELEMENT_SET_NO":999,"REV_AT_EPOCH":2267,"BSTAR":0.00035678975,"MEAN_MOTION_DOT":7.645e-5,"MEAN_MOTION_DDOT":0},{"OBJECT_NAME":"FLOCK 4H-14","OBJECT_ID":"2025-276BD","EPOCH":"2026-04-27T04:52:11.569152","MEAN_MOTION":15.20420234,"ECCENTRICITY":0.00025294,"INCLINATION":97.4223,"RA_OF_ASC_NODE":191.8496,"ARG_OF_PERICENTER":107.122,"MEAN_ANOMALY":253.0293,"EPHEMERIS_TYPE":0,"CLASSIFICATION_TYPE":"U","NORAD_CAT_ID":66717,"ELEMENT_SET_NO":999,"REV_AT_EPOCH":2194,"BSTAR":0.00038188466,"MEAN_MOTION_DOT":8.261e-5,"MEAN_MOTION_DDOT":0},{"OBJECT_NAME":"FLOCK 4H-15","OBJECT_ID":"2025-276BE","EPOCH":"2026-04-27T04:51:19.323072","MEAN_MOTION":15.1898447,"ECCENTRICITY":0.0004601,"INCLINATION":97.4237,"RA_OF_ASC_NODE":191.5673,"ARG_OF_PERICENTER":173.4514,"MEAN_ANOMALY":186.6782,"EPHEMERIS_TYPE":0,"CLASSIFICATION_TYPE":"U","NORAD_CAT_ID":66718,"ELEMENT_SET_NO":999,"REV_AT_EPOCH":2267,"BSTAR":0.00037750423,"MEAN_MOTION_DOT":7.833e-5,"MEAN_MOTION_DDOT":0},{"OBJECT_NAME":"FLOCK 4H-16","OBJECT_ID":"2025-276BF","EPOCH":"2026-04-27T04:29:52.436544","MEAN_MOTION":15.19182277,"ECCENTRICITY":0.0004919,"INCLINATION":97.4253,"RA_OF_ASC_NODE":191.6184,"ARG_OF_PERICENTER":163.0941,"MEAN_ANOMALY":197.0459,"EPHEMERIS_TYPE":0,"CLASSIFICATION_TYPE":"U","NORAD_CAT_ID":66719,"ELEMENT_SET_NO":999,"REV_AT_EPOCH":2267,"BSTAR":0.00037793049,"MEAN_MOTION_DOT":7.887e-5,"MEAN_MOTION_DDOT":0},{"OBJECT_NAME":"FLOCK 4H-18","OBJECT_ID":"2025-276BH","EPOCH":"2026-04-27T04:35:33.026208","MEAN_MOTION":15.19164406,"ECCENTRICITY":0.00038396,"INCLINATION":97.4195,"RA_OF_ASC_NODE":191.5001,"ARG_OF_PERICENTER":181.1659,"MEAN_ANOMALY":178.9567,"EPHEMERIS_TYPE":0,"CLASSIFICATION_TYPE":"U","NORAD_CAT_ID":66721,"ELEMENT_SET_NO":999,"REV_AT_EPOCH":2267,"BSTAR":0.00036990292,"MEAN_MOTION_DOT":7.713e-5,"MEAN_MOTION_DDOT":0},{"OBJECT_NAME":"FLOCK 4H-19","OBJECT_ID":"2025-276BJ","EPOCH":"2026-04-27T04:33:30.455712","MEAN_MOTION":15.20468815,"ECCENTRICITY":0.00032783,"INCLINATION":97.4196,"RA_OF_ASC_NODE":191.8111,"ARG_OF_PERICENTER":105.9734,"MEAN_ANOMALY":254.1862,"EPHEMERIS_TYPE":0,"CLASSIFICATION_TYPE":"U","NORAD_CAT_ID":66722,"ELEMENT_SET_NO":999,"REV_AT_EPOCH":2198,"BSTAR":0.00033770311,"MEAN_MOTION_DOT":7.308e-5,"MEAN_MOTION_DDOT":0},{"OBJECT_NAME":"FLOCK 4H-20","OBJECT_ID":"2025-276BK","EPOCH":"2026-04-27T04:46:13.342656","MEAN_MOTION":15.20550762,"ECCENTRICITY":0.00041833,"INCLINATION":97.4233,"RA_OF_ASC_NODE":191.8727,"ARG_OF_PERICENTER":113.4263,"MEAN_ANOMALY":246.7412,"EPHEMERIS_TYPE":0,"CLASSIFICATION_TYPE":"U","NORAD_CAT_ID":66723,"ELEMENT_SET_NO":999,"REV_AT_EPOCH":2194,"BSTAR":0.00040683699,"MEAN_MOTION_DOT":8.841e-5,"MEAN_MOTION_DDOT":0},{"OBJECT_NAME":"FLOCK 4H-21","OBJECT_ID":"2025-276BL","EPOCH":"2026-04-27T05:01:44.447808","MEAN_MOTION":15.20207791,"ECCENTRICITY":0.00040162,"INCLINATION":97.4199,"RA_OF_ASC_NODE":191.7892,"ARG_OF_PERICENTER":113.9126,"MEAN_ANOMALY":246.253,"EPHEMERIS_TYPE":0,"CLASSIFICATION_TYPE":"U","NORAD_CAT_ID":66724,"ELEMENT_SET_NO":999,"REV_AT_EPOCH":2194,"BSTAR":0.00031770159,"MEAN_MOTION_DOT":6.819e-5,"MEAN_MOTION_DDOT":0},{"OBJECT_NAME":"FLOCK 4H-22","OBJECT_ID":"2025-276BM","EPOCH":"2026-04-27T00:37:34.764384","MEAN_MOTION":15.19529568,"ECCENTRICITY":0.00027622,"INCLINATION":97.4189,"RA_OF_ASC_NODE":191.4003,"ARG_OF_PERICENTER":173.162,"MEAN_ANOMALY":186.9653,"EPHEMERIS_TYPE":0,"CLASSIFICATION_TYPE":"U","NORAD_CAT_ID":66725,"ELEMENT_SET_NO":999,"REV_AT_EPOCH":2265,"BSTAR":0.00036056687,"MEAN_MOTION_DOT":7.596e-5,"MEAN_MOTION_DDOT":0},{"OBJECT_NAME":"FLOCK 4H-23","OBJECT_ID":"2025-276BN","EPOCH":"2026-04-27T04:33:04.343040","MEAN_MOTION":15.19139483,"ECCENTRICITY":0.00052351,"INCLINATION":97.4258,"RA_OF_ASC_NODE":191.6235,"ARG_OF_PERICENTER":156.7102,"MEAN_ANOMALY":203.4371,"EPHEMERIS_TYPE":0,"CLASSIFICATION_TYPE":"U","NORAD_CAT_ID":66726,"ELEMENT_SET_NO":999,"REV_AT_EPOCH":2267,"BSTAR":0.00036805204,"MEAN_MOTION_DOT":7.67e-5,"MEAN_MOTION_DDOT":0},{"OBJECT_NAME":"FLOCK 4H-24","OBJECT_ID":"2025-276BP","EPOCH":"2026-04-27T02:43:52.045248","MEAN_MOTION":15.19233414,"ECCENTRICITY":0.00043485,"INCLINATION":97.4252,"RA_OF_ASC_NODE":191.5699,"ARG_OF_PERICENTER":168.8542,"MEAN_ANOMALY":191.279,"EPHEMERIS_TYPE":0,"CLASSIFICATION_TYPE":"U","NORAD_CAT_ID":66727,"ELEMENT_SET_NO":999,"REV_AT_EPOCH":2266,"BSTAR":0.00036281311,"MEAN_MOTION_DOT":7.579e-5,"MEAN_MOTION_DDOT":0},{"OBJECT_NAME":"FLOCK 4H-25","OBJECT_ID":"2025-276BQ","EPOCH":"2026-04-27T00:37:08.761440","MEAN_MOTION":15.20092218,"ECCENTRICITY":0.00022638,"INCLINATION":97.421,"RA_OF_ASC_NODE":191.599,"ARG_OF_PERICENTER":101.4505,"MEAN_ANOMALY":258.6984,"EPHEMERIS_TYPE":0,"CLASSIFICATION_TYPE":"U","NORAD_CAT_ID":66728,"ELEMENT_SET_NO":999,"REV_AT_EPOCH":2194,"BSTAR":0.00033654378,"MEAN_MOTION_DOT":7.202e-5,"MEAN_MOTION_DDOT":0},{"OBJECT_NAME":"FLOCK 4H-26","OBJECT_ID":"2025-276BR","EPOCH":"2026-04-27T04:47:36.756672","MEAN_MOTION":15.1899889,"ECCENTRICITY":0.000525,"INCLINATION":97.4208,"RA_OF_ASC_NODE":191.5144,"ARG_OF_PERICENTER":169.4467,"MEAN_ANOMALY":190.6878,"EPHEMERIS_TYPE":0,"CLASSIFICATION_TYPE":"U","NORAD_CAT_ID":66729,"ELEMENT_SET_NO":999,"REV_AT_EPOCH":2267,"BSTAR":0.00036475867,"MEAN_MOTION_DOT":7.57e-5,"MEAN_MOTION_DDOT":0},{"OBJECT_NAME":"FLOCK 4H-27","OBJECT_ID":"2025-276BS","EPOCH":"2026-04-27T04:14:47.546880","MEAN_MOTION":15.19823687,"ECCENTRICITY":0.0002282,"INCLINATION":97.4184,"RA_OF_ASC_NODE":191.6528,"ARG_OF_PERICENTER":113.4112,"MEAN_ANOMALY":246.7363,"EPHEMERIS_TYPE":0,"CLASSIFICATION_TYPE":"U","NORAD_CAT_ID":66730,"ELEMENT_SET_NO":999,"REV_AT_EPOCH":2268,"BSTAR":0.00033574356,"MEAN_MOTION_DOT":7.129e-5,"MEAN_MOTION_DDOT":0},{"OBJECT_NAME":"FLOCK 4H-28","OBJECT_ID":"2025-276BT","EPOCH":"2026-04-27T04:45:25.819200","MEAN_MOTION":15.19052861,"ECCENTRICITY":0.00048408,"INCLINATION":97.4194,"RA_OF_ASC_NODE":191.4928,"ARG_OF_PERICENTER":170.1588,"MEAN_ANOMALY":189.9742,"EPHEMERIS_TYPE":0,"CLASSIFICATION_TYPE":"U","NORAD_CAT_ID":66731,"ELEMENT_SET_NO":999,"REV_AT_EPOCH":2267,"BSTAR":0.00037230179,"MEAN_MOTION_DOT":7.739e-5,"MEAN_MOTION_DDOT":0}]
